 {
"type": "FeatureCollection",
"name": "lareas",
"crs": { "type": "name", "properties": { "name": "urn:ogc:def:crs:OGC:1.3:CRS84" } },
"features": [
{ "type": "Feature", "properties": { "Place_Name": "Baldoon Quay", "Easting": 247164.0, "Northing": 557634.0 }, "geometry": { "type": "Point", "coordinates": [ -4.384413468134042, 54.890008551627844 ] } },
{ "type": "Feature", "properties": { "Place_Name": "Alticry", "Easting": 227200.0, "Northing": 549701.0 }, "geometry": { "type": "Point", "coordinates": [ -4.690567023143724, 54.812294362875903 ] } },
{ "type": "Feature", "properties": { "Place_Name": "Ardwell Bay", "Easting": 211355.0, "Northing": 545454.0 }, "geometry": { "type": "Point", "coordinates": [ -4.934031753276888, 54.768466164395555 ] } },
{ "type": "Feature", "properties": { "Place_Name": "Ardwell Bay", "Easting": 206999.0, "Northing": 544991.0 }, "geometry": { "type": "Point", "coordinates": [ -5.001336352265403, 54.762655487310383 ] } },
{ "type": "Feature", "properties": { "Place_Name": "Auchenmalg Bay", "Easting": 223436.0, "Northing": 551676.0 }, "geometry": { "type": "Point", "coordinates": [ -4.750271903883311, 54.828710215501403 ] } },
{ "type": "Feature", "properties": { "Place_Name": "Back Bay", "Easting": 214126.0, "Northing": 532747.0 }, "geometry": { "type": "Point", "coordinates": [ -4.882908443684629, 54.655452339452843 ] } },
{ "type": "Feature", "properties": { "Place_Name": "Back Bay", "Easting": 236699.0, "Northing": 539403.0 }, "geometry": { "type": "Point", "coordinates": [ -4.537119324316153, 54.723027851987887 ] } },
{ "type": "Feature", "properties": { "Place_Name": "Back Port", "Easting": 207672.0, "Northing": 542884.0 }, "geometry": { "type": "Point", "coordinates": [ -4.98949702339995, 54.744004905625388 ] } },
{ "type": "Feature", "properties": { "Place_Name": "Barsolloch", "Easting": 0.0, "Northing": 558684.0 }, "geometry": null },
{ "type": "Feature", "properties": { "Place_Name": "Boak Port", "Easting": 201625.0, "Northing": 573693.0 }, "geometry": { "type": "Point", "coordinates": [ -5.104493387919164, 55.018110243063546 ] } },
{ "type": "Feature", "properties": { "Place_Name": "Bonny well Bay", "Easting": 208451.0, "Northing": 541643.0 }, "geometry": { "type": "Point", "coordinates": [ -4.976595376971656, 54.733165225483091 ] } },
{ "type": "Feature", "properties": { "Place_Name": "Breddock Bay", "Easting": 209101.0, "Northing": 537246.0 }, "geometry": { "type": "Point", "coordinates": [ -4.963632860013607, 54.693951438311963 ] } },
{ "type": "Feature", "properties": { "Place_Name": "Braid Port", "Easting": 197122.0, "Northing": 571042.0 }, "geometry": { "type": "Point", "coordinates": [ -5.172929669942842, 54.992508573367999 ] } },
{ "type": "Feature", "properties": { "Place_Name": "Brandy Port", "Easting": 245995.0, "Northing": 550001.0 }, "geometry": { "type": "Point", "coordinates": [ -4.398549162115498, 54.821116919068622 ] } },
{ "type": "Feature", "properties": { "Place_Name": "Broad Port", "Easting": 195987.0, "Northing": 564481.0 }, "geometry": { "type": "Point", "coordinates": [ -5.185974849179501, 54.933177675593733 ] } },
{ "type": "Feature", "properties": { "Place_Name": "Broad Port", "Easting": 202685.0, "Northing": 572128.0 }, "geometry": { "type": "Point", "coordinates": [ -5.086860004733873, 55.004488943500903 ] } },
{ "type": "Feature", "properties": { "Place_Name": "Broad port", "Easting": 196935.0, "Northing": 560652.0 }, "geometry": { "type": "Point", "coordinates": [ -5.168499738209403, 54.899208561399519 ] } },
{ "type": "Feature", "properties": { "Place_Name": "Broad port", "Easting": 196947.0, "Northing": 560670.0 }, "geometry": { "type": "Point", "coordinates": [ -5.168325599379515, 54.899374944070551 ] } },
{ "type": "Feature", "properties": { "Place_Name": "Broad sea Bay", "Easting": 197328.0, "Northing": 559455.0 }, "geometry": { "type": "Point", "coordinates": [ -5.161538760841679, 54.888627898598315 ] } },
{ "type": "Feature", "properties": { "Place_Name": "Cairngarroch Bay", "Easting": 214429.0, "Northing": 536536.0 }, "geometry": { "type": "Point", "coordinates": [ -4.880626129660493, 54.689571324574054 ] } },
{ "type": "Feature", "properties": { "Place_Name": "Cairnhead bay", "Easting": 248346.0, "Northing": 538416.0 }, "geometry": { "type": "Point", "coordinates": [ -4.355936847685872, 54.717813926684258 ] } },
{ "type": "Feature", "properties": { "Place_Name": "Cairnryan ( loch Ryan)", "Easting": 206773.0, "Northing": 568106.0 }, "geometry": { "type": "Point", "coordinates": [ -5.020324063591758, 54.97000080086314 ] } },
{ "type": "Feature", "properties": { "Place_Name": "Calliedown Bay", "Easting": 209684.0, "Northing": 538398.0 }, "geometry": { "type": "Point", "coordinates": [ -4.955352145478356, 54.704510965277905 ] } },
{ "type": "Feature", "properties": { "Place_Name": "Callies Port", "Easting": 237283.0, "Northing": 539252.0 }, "geometry": { "type": "Point", "coordinates": [ -4.527976876768817, 54.721861540818701 ] } },
{ "type": "Feature", "properties": { "Place_Name": "Calliness Bay", "Easting": 215218.0, "Northing": 535167.0 }, "geometry": { "type": "Point", "coordinates": [ -4.867535003230182, 54.677574246582168 ] } },
{ "type": "Feature", "properties": { "Place_Name": "Carelton Port", "Easting": 239040.0, "Northing": 537600.0 }, "geometry": { "type": "Point", "coordinates": [ -4.499812287927782, 54.707595390214323 ] } },
{ "type": "Feature", "properties": { "Place_Name": "Carleton Port", "Easting": 238619.0, "Northing": 537793.0 }, "geometry": { "type": "Point", "coordinates": [ -4.506446699921288, 54.709193263723911 ] } },
{ "type": "Feature", "properties": { "Place_Name": "Carlin House Bay", "Easting": 209831.0, "Northing": 538214.0 }, "geometry": { "type": "Point", "coordinates": [ -4.952953907407021, 54.702915202593303 ] } },
{ "type": "Feature", "properties": { "Place_Name": "Carrick - a - mickey Bay", "Easting": 212111.0, "Northing": 531418.0 }, "geometry": { "type": "Point", "coordinates": [ -4.913246081065589, 54.642777533594824 ] } },
{ "type": "Feature", "properties": { "Place_Name": "Carrickahawkie bay", "Easting": 210571.0, "Northing": 532392.0 }, "geometry": { "type": "Point", "coordinates": [ -4.937707770052889, 54.650943010998247 ] } },
{ "type": "Feature", "properties": { "Place_Name": "Carty Port", "Easting": 243209.0, "Northing": 562520.0 }, "geometry": { "type": "Point", "coordinates": [ -4.44867769857496, 54.932650126749394 ] } },
{ "type": "Feature", "properties": { "Place_Name": "Castle Bay", "Easting": 200414.0, "Northing": 553339.0 }, "geometry": { "type": "Point", "coordinates": [ -5.109272789340141, 54.834990174441479 ] } },
{ "type": "Feature", "properties": { "Place_Name": "Castle Feather", "Easting": 244800.0, "Northing": 534102.0 }, "geometry": { "type": "Point", "coordinates": [ -4.408637592616755, 54.677998118862831 ] } },
{ "type": "Feature", "properties": { "Place_Name": "Changue Point ( Port)", "Easting": 29700.0, "Northing": 47406.0 }, "geometry": { "type": "Point", "coordinates": [ -7.192119394554596, 50.210455167538981 ] } },
{ "type": "Feature", "properties": { "Place_Name": "chapel port East", "Easting": 248008.0, "Northing": 536187.0 }, "geometry": { "type": "Point", "coordinates": [ -4.360016217213375, 54.69769778232866 ] } },
{ "type": "Feature", "properties": { "Place_Name": "chapel port west", "Easting": 247916.0, "Northing": 536121.0 }, "geometry": { "type": "Point", "coordinates": [ -4.361408018225806, 54.697077374549714 ] } },
{ "type": "Feature", "properties": { "Place_Name": "Chapel Rossan Bay", "Easting": 211226.0, "Northing": 545061.0 }, "geometry": { "type": "Point", "coordinates": [ -4.935778587384505, 54.764890619436784 ] } },
{ "type": "Feature", "properties": { "Place_Name": "Chippermore Port", "Easting": 28713.0, "Northing": 548047.0 }, "geometry": { "type": "Point", "coordinates": [ -7.764480494806275, 54.690050815406721 ] } },
{ "type": "Feature", "properties": { "Place_Name": "clanghie Bay", "Easting": 208755.0, "Northing": 541554.0 }, "geometry": { "type": "Point", "coordinates": [ -4.971822308289084, 54.73248224444842 ] } },
{ "type": "Feature", "properties": { "Place_Name": "Clanyard Bay", "Easting": 210039.0, "Northing": 538006.0 }, "geometry": { "type": "Point", "coordinates": [ -4.949594924851402, 54.701127025226612 ] } },
{ "type": "Feature", "properties": { "Place_Name": "Corwall Port", "Easting": 227699.0, "Northing": 548899.0 }, "geometry": { "type": "Point", "coordinates": [ -4.682333969513011, 54.805266947284892 ] } },
{ "type": "Feature", "properties": { "Place_Name": "Craignaherre", "Easting": 215851.0, "Northing": 530735.0 }, "geometry": { "type": "Point", "coordinates": [ -4.854937852162088, 54.638026698582202 ] } },
{ "type": "Feature", "properties": { "Place_Name": "Curghie bay or Kilstay Bay", "Easting": 0.0, "Northing": 537939.0 }, "geometry": null },
{ "type": "Feature", "properties": { "Place_Name": "Dally Bay", "Easting": 196465.0, "Northing": 568912.0 }, "geometry": { "type": "Point", "coordinates": [ -5.181668956011313, 54.973129443301161 ] } },
{ "type": "Feature", "properties": { "Place_Name": "Drumantrae bay", "Easting": 210842.0, "Northing": 546840.0 }, "geometry": { "type": "Point", "coordinates": [ -4.942898279187938, 54.780711976749622 ] } },
{ "type": "Feature", "properties": { "Place_Name": "Drummore Bay", "Easting": 213789.0, "Northing": 536846.0 }, "geometry": { "type": "Point", "coordinates": [ -4.890739544521274, 54.692117335050213 ] } },
{ "type": "Feature", "properties": { "Place_Name": "East Tarbert", "Easting": 214524.0, "Northing": 530947.0 }, "geometry": { "type": "Point", "coordinates": [ -4.875605682125689, 54.639443303138336 ] } },
{ "type": "Feature", "properties": { "Place_Name": "Float Bay", "Easting": 206390.0, "Northing": 547204.0 }, "geometry": { "type": "Point", "coordinates": [ -5.012263935251554, 54.782280672941944 ] } },
{ "type": "Feature", "properties": { "Place_Name": "Front Bay", "Easting": 236377.0, "Northing": 539809.0 }, "geometry": { "type": "Point", "coordinates": [ -4.542341886264694, 54.726568117885279 ] } },
{ "type": "Feature", "properties": { "Place_Name": "Galdenoch Bay", "Easting": 0.0, "Northing": 0.0 }, "geometry": null },
{ "type": "Feature", "properties": { "Place_Name": "Galloway port", "Easting": 207059.0, "Northing": 545502.0 }, "geometry": { "type": "Point", "coordinates": [ -5.000744777883075, 54.767264346453437 ] } },
{ "type": "Feature", "properties": { "Place_Name": "Garheugh Port", "Easting": 226896.0, "Northing": 549905.0 }, "geometry": { "type": "Point", "coordinates": [ -4.695413934027334, 54.814020656822507 ] } },
{ "type": "Feature", "properties": { "Place_Name": "Innermessan", "Easting": 207989.0, "Northing": 562633.0 }, "geometry": { "type": "Point", "coordinates": [ -4.997695351256473, 54.921356603527379 ] } },
{ "type": "Feature", "properties": { "Place_Name": "Innerwell Port ( Culscadden;Innerwell Fishery; Baldoon Sands)", "Easting": 0.0, "Northing": 549304.0 }, "geometry": null },
{ "type": "Feature", "properties": { "Place_Name": "Isle of Whithorn", "Easting": 247903.0, "Northing": 536082.0 }, "geometry": { "type": "Point", "coordinates": [ -4.361589197942271, 54.6967232659225 ] } },
{ "type": "Feature", "properties": { "Place_Name": "Isle of Whithorn", "Easting": 247834.0, "Northing": 536332.0 }, "geometry": { "type": "Point", "coordinates": [ -4.362789372023822, 54.6989471461142 ] } },
{ "type": "Feature", "properties": { "Place_Name": "kelly port", "Easting": 244806.0, "Northing": 561229.0 }, "geometry": { "type": "Point", "coordinates": [ -4.423079949379304, 54.921558594440612 ] } },
{ "type": "Feature", "properties": { "Place_Name": "kilantringan Bay", "Easting": 198188.0, "Northing": 556898.0 }, "geometry": { "type": "Point", "coordinates": [ -5.146362776080425, 54.866032481878015 ] } },
{ "type": "Feature", "properties": { "Place_Name": "Kilstay Bay see Curghie Bay", "Easting": 212875.0, "Northing": 538549.0 }, "geometry": { "type": "Point", "coordinates": [ -4.905994045075817, 54.707062932173223 ] } },
{ "type": "Feature", "properties": { "Place_Name": "Knock Bay", "Easting": 198128.0, "Northing": 557633.0 }, "geometry": { "type": "Point", "coordinates": [ -5.147810510010681, 54.872603267283054 ] } },
{ "type": "Feature", "properties": { "Place_Name": "Knockdown ferry ( River Cree)", "Easting": 246320.0, "Northing": 560314.0 }, "geometry": { "type": "Point", "coordinates": [ -4.398990571484208, 54.913811853395245 ] } },
{ "type": "Feature", "properties": { "Place_Name": "March  port", "Easting": 196007.0, "Northing": 565890.0 }, "geometry": { "type": "Point", "coordinates": [ -5.186663848687766, 54.945827879384048 ] } },
{ "type": "Feature", "properties": { "Place_Name": "March Port", "Easting": 196585.0, "Northing": 568211.0 }, "geometry": { "type": "Point", "coordinates": [ -5.179299865552307, 54.966888823809327 ] } },
{ "type": "Feature", "properties": { "Place_Name": "Marian Port", "Easting": 0.0, "Northing": 566990.0 }, "geometry": null },
{ "type": "Feature", "properties": { "Place_Name": "Maryport", "Easting": 214552.0, "Northing": 534145.0 }, "geometry": { "type": "Point", "coordinates": [ -4.877201258563316, 54.668156731757186 ] } },
{ "type": "Feature", "properties": { "Place_Name": "Maryport Bay", "Easting": 214562.0, "Northing": 534191.0 }, "geometry": { "type": "Point", "coordinates": [ -4.877075616470816, 54.668573276322007 ] } },
{ "type": "Feature", "properties": { "Place_Name": "McKeands Loup (auchenmalg bay)", "Easting": 223397.0, "Northing": 551664.0 }, "geometry": { "type": "Point", "coordinates": [ -4.750870948151285, 54.828588753752122 ] } },
{ "type": "Feature", "properties": { "Place_Name": "Milton Port", "Easting": 231524.0, "Northing": 546224.0 }, "geometry": { "type": "Point", "coordinates": [ -4.621336097178868, 54.782553494183901 ] } },
{ "type": "Feature", "properties": { "Place_Name": "Monreith Bay", "Easting": 235005.0, "Northing": 540994.0 }, "geometry": { "type": "Point", "coordinates": [ -4.564295549419352, 54.736758101113089 ] } },
{ "type": "Feature", "properties": { "Place_Name": "Orchardton Bay ( Culscadeen, Wigtown)", "Easting": 246495.0, "Northing": 549892.0 }, "geometry": { "type": "Point", "coordinates": [ -4.39071657546242, 54.820291718189509 ] } },
{ "type": "Feature", "properties": { "Place_Name": "Pates Port", "Easting": 234188.0, "Northing": 541976.0 }, "geometry": { "type": "Point", "coordinates": [ -4.57753140911618, 54.74530504912763 ] } },
{ "type": "Feature", "properties": { "Place_Name": "Pates Port", "Easting": 234048.0, "Northing": 541993.0 }, "geometry": { "type": "Point", "coordinates": [ -4.579713667591029, 54.745411439090617 ] } },
{ "type": "Feature", "properties": { "Place_Name": "Pates Port", "Easting": 234188.0, "Northing": 541976.0 }, "geometry": { "type": "Point", "coordinates": [ -4.57753140911618, 54.74530504912763 ] } },
{ "type": "Feature", "properties": { "Place_Name": "Piltanton Burn", "Easting": 217004.0, "Northing": 555993.0 }, "geometry": { "type": "Point", "coordinates": [ -4.853004517812569, 54.865147885359455 ] } },
{ "type": "Feature", "properties": { "Place_Name": "PORT ACLEARYS", "Easting": 198653.0, "Northing": 572713.0 }, "geometry": { "type": "Point", "coordinates": [ -5.150213228153428, 55.008123160756661 ] } },
{ "type": "Feature", "properties": { "Place_Name": "Port Allen or portAllan ( OS Name Books)", "Easting": 0.0, "Northing": 541043.0 }, "geometry": null },
{ "type": "Feature", "properties": { "Place_Name": "Port beg", "Easting": 195984.0, "Northing": 563121.0 }, "geometry": { "type": "Point", "coordinates": [ -5.185056385691173, 54.920974033307978 ] } },
{ "type": "Feature", "properties": { "Place_Name": "Port Briar\/  Watering Port", "Easting": 0.0, "Northing": 536132.0 }, "geometry": null },
{ "type": "Feature", "properties": { "Place_Name": "Port Castle Bay", "Easting": 242601.0, "Northing": 535807.0 }, "geometry": { "type": "Point", "coordinates": [ -4.443629418414733, 54.692623887499963 ] } },
{ "type": "Feature", "properties": { "Place_Name": "PORT COONAN", "Easting": 241799.0, "Northing": 536095.0 }, "geometry": { "type": "Point", "coordinates": [ -4.45621638199613, 54.694958218067548 ] } },
{ "type": "Feature", "properties": { "Place_Name": "Port Gavillan", "Easting": 196728.0, "Northing": 570424.0 }, "geometry": { "type": "Point", "coordinates": [ -5.178639439586762, 54.986802991731864 ] } },
{ "type": "Feature", "properties": { "Place_Name": "Port Gill", "Easting": 207689.0, "Northing": 543010.0 }, "geometry": { "type": "Point", "coordinates": [ -4.989316668861471, 54.745142173183403 ] } },
{ "type": "Feature", "properties": { "Place_Name": "Port Gower", "Easting": 207309.0, "Northing": 543815.0 }, "geometry": { "type": "Point", "coordinates": [ -4.995745220104227, 54.752220856333949 ] } },
{ "type": "Feature", "properties": { "Place_Name": "Port Henry", "Easting": 247870.0, "Northing": 538909.0 }, "geometry": { "type": "Point", "coordinates": [ -4.363577410098987, 54.72209675170798 ] } },
{ "type": "Feature", "properties": { "Place_Name": "Port kale", "Easting": 199001.0, "Northing": 555220.0 }, "geometry": { "type": "Point", "coordinates": [ -5.132546562484353, 54.8513032317111 ] } },
{ "type": "Feature", "properties": { "Place_Name": "Port Kemin", "Easting": 212379.0, "Northing": 531432.0 }, "geometry": { "type": "Point", "coordinates": [ -4.909107796000836, 54.643002952044021 ] } },
{ "type": "Feature", "properties": { "Place_Name": "PORT LEAN", "Easting": 199441.0, "Northing": 572611.0 }, "geometry": { "type": "Point", "coordinates": [ -5.137839538505494, 55.007526145400497 ] } },
{ "type": "Feature", "properties": { "Place_Name": "Port Leen", "Easting": 199436.0, "Northing": 572623.0 }, "geometry": { "type": "Point", "coordinates": [ -5.137926011400962, 55.007631802265692 ] } },
{ "type": "Feature", "properties": { "Place_Name": "Port Lennie", "Easting": 214213.0, "Northing": 532393.0 }, "geometry": { "type": "Point", "coordinates": [ -4.881336684602681, 54.652307154651432 ] } },
{ "type": "Feature", "properties": { "Place_Name": "Port Lochan", "Easting": 207747.0, "Northing": 543259.0 }, "geometry": { "type": "Point", "coordinates": [ -4.988581621235052, 54.747398968408959 ] } },
{ "type": "Feature", "properties": { "Place_Name": "PORT LOGAN orPort Nessock", "Easting": 209896.0, "Northing": 540408.0 }, "geometry": { "type": "Point", "coordinates": [ -4.953378583279918, 54.722630121968933 ] } },
{ "type": "Feature", "properties": { "Place_Name": "PORT LONG", "Easting": 196255.0, "Northing": 569291.0 }, "geometry": { "type": "Point", "coordinates": [ -5.185213878684034, 54.976444124985171 ] } },
{ "type": "Feature", "properties": { "Place_Name": "Port McGean", "Easting": 249203.0, "Northing": 548513.0 }, "geometry": { "type": "Point", "coordinates": [ -4.347889662244388, 54.808732341796791 ] } },
{ "type": "Feature", "properties": { "Place_Name": "Port Mona", "Easting": 210427.0, "Northing": 532611.0 }, "geometry": { "type": "Point", "coordinates": [ -4.940078544706009, 54.652854379300742 ] } },
{ "type": "Feature", "properties": { "Place_Name": "PORT MONA BURN", "Easting": 210505.0, "Northing": 532640.0 }, "geometry": { "type": "Point", "coordinates": [ -4.938890035945178, 54.653143972006148 ] } },
{ "type": "Feature", "properties": { "Place_Name": "PORT MONA CAVE", "Easting": 210389.0, "Northing": 532619.0 }, "geometry": { "type": "Point", "coordinates": [ -4.940671907828477, 54.652911888324766 ] } },
{ "type": "Feature", "properties": { "Place_Name": "PORT MONA HEUGHS", "Easting": 210562.0, "Northing": 532625.0 }, "geometry": { "type": "Point", "coordinates": [ -4.937998046014053, 54.6530307697439 ] } },
{ "type": "Feature", "properties": { "Place_Name": "Port Mora", "Easting": 199147.0, "Northing": 555124.0 }, "geometry": { "type": "Point", "coordinates": [ -5.130209293880913, 54.850500434720139 ] } },
{ "type": "Feature", "properties": { "Place_Name": "Port More", "Easting": 203014.0, "Northing": 0.0 }, "geometry": null },
{ "type": "Feature", "properties": { "Place_Name": "Port Mullin", "Easting": 199114.0, "Northing": 572585.0 }, "geometry": { "type": "Point", "coordinates": [ -5.142926278734241, 55.007160969566023 ] } },
{ "type": "Feature", "properties": { "Place_Name": "Port Nessock ( see Port Logan)", "Easting": 209526.0, "Northing": 541246.0 }, "geometry": { "type": "Point", "coordinates": [ -4.959663753230692, 54.730010803400333 ] } },
{ "type": "Feature", "properties": { "Place_Name": "Port of Counan or connan", "Easting": 241795.0, "Northing": 536099.0 }, "geometry": { "type": "Point", "coordinates": [ -4.456280554629753, 54.694992874098794 ] } },
{ "type": "Feature", "properties": { "Place_Name": "Port of Spittal", "Easting": 201986.0, "Northing": 552140.0 }, "geometry": { "type": "Point", "coordinates": [ -5.084013845913051, 54.824855084825536 ] } },
{ "type": "Feature", "properties": { "Place_Name": "PORT RODIE", "Easting": 206204.0, "Northing": 560967.0 }, "geometry": { "type": "Point", "coordinates": [ -5.024383430044869, 54.905716612047293 ] } },
{ "type": "Feature", "properties": { "Place_Name": "Port Sand", "Easting": 196615.0, "Northing": 568435.0 }, "geometry": { "type": "Point", "coordinates": [ -5.178990892046645, 54.968910875492305 ] } },
{ "type": "Feature", "properties": { "Place_Name": "Port Wapple Monreith (Port Whapple)", "Easting": 234966.0, "Northing": 541037.0 }, "geometry": { "type": "Point", "coordinates": [ -4.564925044302746, 54.73713132909517 ] } },
{ "type": "Feature", "properties": { "Place_Name": "Port Whapple", "Easting": 249521.0, "Northing": 547482.0 }, "geometry": { "type": "Point", "coordinates": [ -4.342410456218166, 54.799570651218112 ] } },
{ "type": "Feature", "properties": { "Place_Name": "Port William", "Easting": 0.0, "Northing": 0.0 }, "geometry": null },
{ "type": "Feature", "properties": { "Place_Name": "PORT-A-BADDIE", "Easting": 214440.0, "Northing": 531289.0 }, "geometry": { "type": "Point", "coordinates": [ -4.87712243102567, 54.642481979046671 ] } },
{ "type": "Feature", "properties": { "Place_Name": "PORTABELLO", "Easting": 196027.0, "Northing": 566286.0 }, "geometry": { "type": "Point", "coordinates": [ -5.186633452464792, 54.94938909916857 ] } },
{ "type": "Feature", "properties": { "Place_Name": "Portaclearys", "Easting": 198674.0, "Northing": 572716.0 }, "geometry": { "type": "Point", "coordinates": [ -5.149887493357602, 55.008158574365623 ] } },
{ "type": "Feature", "properties": { "Place_Name": "Portacree", "Easting": 211815.0, "Northing": 543318.0 }, "geometry": { "type": "Point", "coordinates": [ -4.925507367856677, 54.749468664356272 ] } },
{ "type": "Feature", "properties": { "Place_Name": "PortaMaggie", "Easting": 198163.0, "Northing": 556302.0 }, "geometry": { "type": "Point", "coordinates": [ -5.14633486555638, 54.860674608965937 ] } },
{ "type": "Feature", "properties": { "Place_Name": "Portankill", "Easting": 214170.0, "Northing": 532290.0 }, "geometry": { "type": "Point", "coordinates": [ -4.88193680509682, 54.651366851971524 ] } },
{ "type": "Feature", "properties": { "Place_Name": "Portavaddie", "Easting": 214404.0, "Northing": 531303.0 }, "geometry": { "type": "Point", "coordinates": [ -4.877688420789575, 54.642594387684305 ] } },
{ "type": "Feature", "properties": { "Place_Name": "Portayew", "Easting": 203848.0, "Northing": 550344.0 }, "geometry": { "type": "Point", "coordinates": [ -5.053856804734755, 54.809470867783105 ] } },
{ "type": "Feature", "properties": { "Place_Name": "portbeg", "Easting": 203336.0, "Northing": 570935.0 }, "geometry": { "type": "Point", "coordinates": [ -5.075877115982718, 54.994041584612312 ] } },
{ "type": "Feature", "properties": { "Place_Name": "Wee PORTBEG", "Easting": 195923.0, "Northing": 563268.0 }, "geometry": { "type": "Point", "coordinates": [ -5.186110933181809, 54.922268041297606 ] } },
{ "type": "Feature", "properties": { "Place_Name": "PORTCASTLE BAY", "Easting": 242319.0, "Northing": 535731.0 }, "geometry": { "type": "Point", "coordinates": [ -4.447959229429381, 54.69185326483948 ] } },
{ "type": "Feature", "properties": { "Place_Name": "Portdown Bay", "Easting": 209881.0, "Northing": 533209.0 }, "geometry": { "type": "Point", "coordinates": [ -4.948918590587624, 54.658015691726099 ] } },
{ "type": "Feature", "properties": { "Place_Name": "Portencallie", "Easting": 202734.0, "Northing": 571894.0 }, "geometry": { "type": "Point", "coordinates": [ -5.085933706278627, 55.002408660128033 ] } },
{ "type": "Feature", "properties": { "Place_Name": "PortenCalzie or lady bay", "Easting": 202676.0, "Northing": 571743.0 }, "geometry": { "type": "Point", "coordinates": [ -5.08673497699032, 55.00103073206283 ] } },
{ "type": "Feature", "properties": { "Place_Name": "PortenCorkrie", "Easting": 0.0, "Northing": 535293.0 }, "geometry": null },
{ "type": "Feature", "properties": { "Place_Name": "PORTENOUGHTRY", "Easting": 202244.0, "Northing": 573459.0 }, "geometry": { "type": "Point", "coordinates": [ -5.094664942694198, 55.016257014947257 ] } },
{ "type": "Feature", "properties": { "Place_Name": "PORTLENNIE", "Easting": 214232.0, "Northing": 532397.0 }, "geometry": { "type": "Point", "coordinates": [ -4.881045127646624, 54.6523500569375 ] } },
{ "type": "Feature", "properties": { "Place_Name": "Portlong Bay", "Easting": 196192.0, "Northing": 569328.0 }, "geometry": { "type": "Point", "coordinates": [ -5.186222922571726, 54.976750333362951 ] } },
{ "type": "Feature", "properties": { "Place_Name": "PORTMORE", "Easting": 203053.0, "Northing": 571399.0 }, "geometry": { "type": "Point", "coordinates": [ -5.080613255922566, 54.998093271535105 ] } },
{ "type": "Feature", "properties": { "Place_Name": "PORTMORE BAY", "Easting": 203020.0, "Northing": 571412.0 }, "geometry": { "type": "Point", "coordinates": [ -5.081137296203202, 54.998196866241301 ] } },
{ "type": "Feature", "properties": { "Place_Name": "PORTNAUCHTRY", "Easting": 202259.0, "Northing": 573460.0 }, "geometry": { "type": "Point", "coordinates": [ -5.094431398585942, 55.016271950272341 ] } },
{ "type": "Feature", "properties": { "Place_Name": "Portnaughan Bay", "Easting": 196687.0, "Northing": 569932.0 }, "geometry": { "type": "Point", "coordinates": [ -5.1789299454164, 54.982371867676001 ] } },
{ "type": "Feature", "properties": { "Place_Name": "Portnuachtry", "Easting": 202225.0, "Northing": 573486.0 }, "geometry": { "type": "Point", "coordinates": [ -5.094980321068947, 55.01649173333476 ] } },
{ "type": "Feature", "properties": { "Place_Name": "Portobello", "Easting": 196092.0, "Northing": 566335.0 }, "geometry": { "type": "Point", "coordinates": [ -5.185655010888103, 54.949855322339694 ] } },
{ "type": "Feature", "properties": { "Place_Name": "Portpatrick", "Easting": 199880.0, "Northing": 554025.0 }, "geometry": { "type": "Point", "coordinates": [ -5.118048959753679, 54.840932624722569 ] } },
{ "type": "Feature", "properties": { "Place_Name": "PORTREE", "Easting": 200884.0, "Northing": 553730.0 }, "geometry": { "type": "Point", "coordinates": [ -5.102235719017492, 54.83868577872969 ] } },
{ "type": "Feature", "properties": { "Place_Name": "Ports of Cruggleton", "Easting": 248103.0, "Northing": 544114.0 }, "geometry": { "type": "Point", "coordinates": [ -4.362683772079227, 54.768902348679589 ] } },
{ "type": "Feature", "properties": { "Place_Name": "Portslogan", "Easting": 198624.0, "Northing": 558664.0 }, "geometry": { "type": "Point", "coordinates": [ -5.140813066494673, 54.882054204566892 ] } },
{ "type": "Feature", "properties": { "Place_Name": "Portyerrock bay", "Easting": 247601.0, "Northing": 539006.0 }, "geometry": { "type": "Point", "coordinates": [ -4.367800892580219, 54.722886236719042 ] } },
{ "type": "Feature", "properties": { "Place_Name": "PORTYERROCK BAY", "Easting": 248144.0, "Northing": 538707.0 }, "geometry": { "type": "Point", "coordinates": [ -4.359221744921285, 54.720365838738395 ] } },
{ "type": "Feature", "properties": { "Place_Name": "Rigg Bay or Cruggleton bay", "Easting": 248147.0, "Northing": 544502.0 }, "geometry": { "type": "Point", "coordinates": [ -4.362203522908172, 54.772399457831277 ] } },
{ "type": "Feature", "properties": { "Place_Name": "Rue of Doury ( Dourie) or Row of Dowrie", "Easting": 233802.0, "Northing": 543000.0 }, "geometry": { "type": "Point", "coordinates": [ -4.584107156421997, 54.754370341926005 ] } },
{ "type": "Feature", "properties": { "Place_Name": "Saltpans Bay (see galdenoch)", "Easting": 196401.0, "Northing": 561501.0 }, "geometry": { "type": "Point", "coordinates": [ -5.177414102403936, 54.906608889582792 ] } },
{ "type": "Feature", "properties": { "Place_Name": "sandhead Bay", "Easting": 10293.0, "Northing": 49458.0 }, "geometry": { "type": "Point", "coordinates": [ -7.464986815446752, 50.216374090928625 ] } },
{ "type": "Feature", "properties": { "Place_Name": "Slouchnagary kirkcolm", "Easting": 203399.0, "Northing": 570684.0 }, "geometry": { "type": "Point", "coordinates": [ -5.074721478276337, 54.991814187548187 ] } },
{ "type": "Feature", "properties": { "Place_Name": "St Medans chapel and well and cave", "Easting": 214382.0, "Northing": 531568.0 }, "geometry": { "type": "Point", "coordinates": [ -4.878197045370208, 54.644964756234025 ] } },
{ "type": "Feature", "properties": { "Place_Name": "Stairhaven ( Burnfoot acc. To Graham)", "Easting": 220806.0, "Northing": 553718.0 }, "geometry": { "type": "Point", "coordinates": [ -4.792428092071546, 54.846104668447254 ] } },
{ "type": "Feature", "properties": { "Place_Name": "Stinking port", "Easting": 248004.0, "Northing": 536459.0 }, "geometry": { "type": "Point", "coordinates": [ -4.360220085953371, 54.700138854560649 ] } },
{ "type": "Feature", "properties": { "Place_Name": "Swallow Port", "Easting": 196249.0, "Northing": 567058.0 }, "geometry": { "type": "Point", "coordinates": [ -5.183720879386308, 54.956406491750712 ] } },
{ "type": "Feature", "properties": { "Place_Name": "Terally Bay", "Easting": 212342.0, "Northing": 541047.0 }, "geometry": { "type": "Point", "coordinates": [ -4.915865145651807, 54.729283817864783 ] } },
{ "type": "Feature", "properties": { "Place_Name": "The Lookout", "Easting": 214077.0, "Northing": 530706.0 }, "geometry": { "type": "Point", "coordinates": [ -4.882369418679945, 54.637115690695161 ] } },
{ "type": "Feature", "properties": { "Place_Name": "West Port", "Easting": 243253.0, "Northing": 555268.0 }, "geometry": { "type": "Point", "coordinates": [ -4.444042669995069, 54.867554718416905 ] } },
{ "type": "Feature", "properties": { "Place_Name": "West Tarbert", "Easting": 213980.0, "Northing": 530919.0 }, "geometry": { "type": "Point", "coordinates": [ -4.884005721875763, 54.638991670246625 ] } },
{ "type": "Feature", "properties": { "Place_Name": "White Port", "Easting": 247906.0, "Northing": 540510.0 }, "geometry": { "type": "Point", "coordinates": [ -4.363856066133828, 54.736482871225853 ] } }

]
}
